OBJECT_NAME,OBJECT_ID,EPOCH,MEAN_MOTION,ECCENTRICITY,INCLINATION,RA_OF_ASC_NODE,ARG_OF_PERICENTER,MEAN_ANOMALY,EPHEMERIS_TYPE,CLASSIFICATION_TYPE,NORAD_CAT_ID,ELEMENT_SET_NO,REV_AT_EPOCH,BSTAR,MEAN_MOTION_DOT,MEAN_MOTION_DDOT
ONEWEB-0578,2023-043X,2026-06-15T23:12:43.953696,13.21824538,.00023349,87.9259,244.2153,97.5463,262.5936,0,U,56067,999,15807,.38771164E-4,.29E-6,0
ONEWEB-0579,2023-043Y,2026-06-15T23:00:38.280960,13.21826398,.00017558,87.9263,244.2138,101.3142,258.8190,0,U,56068,999,15808,.14660424E-4,.19E-6,0
ONEWEB-0581,2023-043Z,2026-06-15T22:25:23.881152,13.16592389,.00020782,87.9100,229.0332,81.6263,278.5104,0,U,56069,999,15879,.13981379E-3,.66E-6,0
ONEWEB-0609,2023-043AA,2026-06-15T17:40:15.405024,13.15548742,.00020163,87.9001,259.5006,102.5531,257.5825,0,U,56070,999,15624,-.30203789E-3,-.101E-5,0
ONEWEB-0613,2023-043AB,2026-06-15T23:05:23.310240,13.15550063,.00017522,87.9001,259.4679,106.3060,253.8263,0,U,56071,999,15627,-.50649293E-4,-.6E-7,0
ONEWEB-0630,2023-043AC,2026-06-15T22:58:32.720160,13.15546837,.00017691,87.9006,259.4404,104.6383,255.4943,0,U,56072,999,15626,.53399525E-4,.33E-6,0
ONEWEB-0632,2023-043AD,2026-06-15T19:12:40.592448,13.15548390,.0001923,87.9005,259.4896,95.4004,264.7345,0,U,56073,999,15624,-.45742576E-4,-.4E-7,0
ONEWEB-0633,2023-043AE,2026-06-15T22:42:34.618464,13.15547197,.00018041,87.9011,259.4359,112.5378,247.5943,0,U,56074,999,15624,.22437127E-3,.97E-6,0
ONEWEB-0634,2023-043AF,2026-06-15T18:43:00.924384,13.15548415,.00022776,87.9003,259.5096,104.3221,255.8162,0,U,56075,999,15621,.21466023E-3,.94E-6,0
ONEWEB-0635,2023-043AG,2026-06-15T16:46:37.194240,13.15550411,.00019397,87.9011,259.4880,92.7215,267.4137,0,U,56076,999,15623,.2088824E-3,.91E-6,0
ONEWEB-0636,2023-043AH,2026-06-15T18:24:45.440640,13.15549297,.00019782,87.9007,259.4808,94.5293,265.6063,0,U,56077,999,15622,.33651995E-4,.25E-6,0
ONEWEB-0637,2023-043AJ,2026-06-15T18:15:38.152800,13.15548754,.00022586,87.8999,259.4986,96.4290,263.7097,0,U,56078,999,15624,-.71603643E-4,-.14E-6,0
ONEWEB-0647,2023-043AK,2026-06-15T16:19:16.359744,13.15548769,.00018229,87.9002,259.5273,97.9546,262.1791,0,U,56079,999,15622,-.34369079E-3,-.117E-5,0
ONEWEB-0651,2023-043AL,2026-06-15T21:40:59.369088,13.15548967,.00020952,87.9000,259.4763,94.2854,265.8516,0,U,56080,999,15745,-.98426181E-4,-.24E-6,0
ONEWEB-0718,2023-043AM,2026-06-15T17:55:04.375488,13.15546259,.00023576,87.8998,259.4883,110.2041,249.9343,0,U,56081,999,15624,-.29563191E-3,-.98E-6,0
ONEWEB-0561,2023-068A,2026-06-15T18:11:57.339456,13.20772857,.00017354,87.9193,274.7278,90.4238,269.7094,0,U,56710,999,14931,-.54867794E-4,-.9E-7,0
ONEWEB-0668,2023-068B,2026-06-15T16:20:37.786560,13.16594248,.00026071,87.9095,229.0715,100.1073,260.0352,0,U,56711,999,15158,-.54549492E-4,-.8E-7,0
ONEWEB-0676,2023-068C,2026-06-15T22:00:19.255392,13.16592392,.00020367,87.9099,229.0307,88.8873,271.2492,0,U,56712,999,15153,.142527E-4,.18E-6,0
ONEWEB-0677,2023-068D,2026-06-15T17:54:58.000896,13.20769980,.00022584,87.9194,274.7217,92.5885,267.5507,0,U,56713,999,14961,-.92703829E-4,-.25E-6,0
ONEWEB-0678,2023-068E,2026-06-15T18:58:58.946592,13.15548550,.00016714,87.9011,259.4712,101.4630,258.6688,0,U,56714,999,14910,.3015204E-3,.126E-5,0
ONEWEB-0679,2023-068F,2026-06-15T21:01:03.191232,13.16594668,.00025814,87.9100,229.0304,90.9018,269.2409,0,U,56715,999,15155,.8455818E-4,.45E-6,0
ONEWEB-0680,2023-068G,2026-06-15T23:03:01.826784,13.21828201,.00026203,87.9263,244.2150,98.3215,261.8217,0,U,56716,999,15093,.11275812E-3,.6E-6,0
ONEWEB-0681,2023-068H,2026-06-15T22:35:10.715136,13.21826929,.00020231,87.9258,244.2202,71.4844,288.6510,0,U,56717,999,15092,.95962964E-4,.53E-6,0
ONEWEB-0682,2023-068J,2026-06-15T23:12:15.766560,13.15548525,.00025529,87.9008,259.4370,99.0825,261.0595,0,U,56718,999,14929,-.34293004E-3,-.116E-5,0
ONEWEB-0683,2023-068K,2026-06-15T18:17:55.199616,13.15548889,.00022576,87.9011,259.4773,103.1220,257.0163,0,U,56719,999,14923,-.20465342E-3,-.64E-6,0
ONEWEB-0684,2023-068L,2026-06-15T16:39:48.154176,13.15548091,.00014314,87.9007,259.4809,143.9086,216.2141,0,U,56720,999,14905,.21264417E-3,.93E-6,0
ONEWEB-0686,2023-068M,2026-06-15T21:53:29.859360,13.16594236,.00022194,87.9088,229.0466,106.4791,253.6584,0,U,56721,999,15154,.95157318E-4,.49E-6,0
ONEWEB-0694,2023-068N,2026-06-15T22:02:36.645216,13.16595014,.00024662,87.9109,229.0098,99.8238,260.3172,0,U,56722,999,15160,.71788641E-3,.287E-5,0
ONEWEB-0696,2023-068P,2026-06-15T17:27:41.746464,13.15546649,.00014901,87.9004,259.5128,101.7410,258.3888,0,U,56723,999,14917,.16901533E-4,.19E-6,0
ONEWEB-0703,2023-068Q,2026-06-15T19:30:55.876608,13.15548371,.00011659,87.9003,259.4767,87.2938,272.8326,0,U,56724,999,14907,-.44873291E-3,-.156E-5,0
