ONEWEB-0578             
1 56067U 23043X   26166.96717539  .00000029  00000+0  38771-4 0  9994
2 56067  87.9259 244.2153 0002334  97.5463 262.5936 13.21824538158074
ONEWEB-0579             
1 56068U 23043Y   26166.95877640  .00000019  00000+0  14660-4 0  9994
2 56068  87.9263 244.2138 0001755 101.3142 258.8190 13.21826398158084
ONEWEB-0581             
1 56069U 23043Z   26166.93430418  .00000066  00000+0  13981-3 0  9997
2 56069  87.9100 229.0332 0002078  81.6263 278.5104 13.16592389158791
ONEWEB-0609             
1 56070U 23043AA  26166.73628941 -.00000101  00000+0 -30204-3 0  9996
2 56070  87.9001 259.5006 0002016 102.5531 257.5825 13.15548742156240
ONEWEB-0613             
1 56071U 23043AB  26166.96207535 -.00000006  00000+0 -50649-4 0  9994
2 56071  87.9001 259.4679 0001752 106.3060 253.8263 13.15550063156278
ONEWEB-0630             
1 56072U 23043AC  26166.95732315  .00000033  00000+0  53400-4 0  9999
2 56072  87.9006 259.4404 0001769 104.6383 255.4943 13.15546837156263
ONEWEB-0632             
1 56073U 23043AD  26166.80046982 -.00000004  00000+0 -45743-4 0  9993
2 56073  87.9005 259.4896 0001923  95.4004 264.7345 13.15548390156240
ONEWEB-0633             
1 56074U 23043AE  26166.94623401  .00000097  00000+0  22437-3 0  9990
2 56074  87.9011 259.4359 0001804 112.5378 247.5943 13.15547197156242
ONEWEB-0634             
1 56075U 23043AF  26166.77987181  .00000094  00000+0  21466-3 0  9998
2 56075  87.9003 259.5096 0002277 104.3221 255.8162 13.15548415156210
ONEWEB-0635             
1 56076U 23043AG  26166.69904160  .00000091  00000+0  20888-3 0  9990
2 56076  87.9011 259.4880 0001939  92.7215 267.4137 13.15550411156239
ONEWEB-0636             
1 56077U 23043AH  26166.76719260  .00000025  00000+0  33652-4 0  9995
2 56077  87.9007 259.4808 0001978  94.5293 265.6063 13.15549297156221
ONEWEB-0637             
1 56078U 23043AJ  26166.76085825 -.00000014  00000+0 -71604-4 0  9998
2 56078  87.8999 259.4986 0002258  96.4290 263.7097 13.15548754156243
ONEWEB-0647             
1 56079U 23043AK  26166.68005046 -.00000117  00000+0 -34369-3 0  9997
2 56079  87.9002 259.5273 0001822  97.9546 262.1791 13.15548769156224
ONEWEB-0651             
1 56080U 23043AL  26166.90346492 -.00000024  00000+0 -98426-4 0  9999
2 56080  87.9000 259.4763 0002095  94.2854 265.8516 13.15548967157453
ONEWEB-0718             
1 56081U 23043AM  26166.74657842 -.00000098  00000+0 -29563-3 0  9992
2 56081  87.8998 259.4883 0002357 110.2041 249.9343 13.15546259156249
ONEWEB-0561             
1 56710U 23068A   26166.75830254 -.00000009  00000+0 -54868-4 0  9998
2 56710  87.9193 274.7278 0001735  90.4238 269.7094 13.20772857149314
ONEWEB-0668             
1 56711U 23068B   26166.68099290 -.00000008  00000+0 -54549-4 0  9993
2 56711  87.9095 229.0715 0002607 100.1073 260.0352 13.16594248151584
ONEWEB-0676             
1 56712U 23068C   26166.91688953  .00000018  00000+0  14253-4 0  9997
2 56712  87.9099 229.0307 0002036  88.8873 271.2492 13.16592392151534
ONEWEB-0677             
1 56713U 23068D   26166.74650464 -.00000025  00000+0 -92704-4 0  9992
2 56713  87.9194 274.7217 0002258  92.5885 267.5507 13.20769980149614
ONEWEB-0678             
1 56714U 23068E   26166.79096003  .00000126  00000+0  30152-3 0  9999
2 56714  87.9011 259.4712 0001671 101.4630 258.6688 13.15548550149106
ONEWEB-0679             
1 56715U 23068F   26166.87573138  .00000045  00000+0  84558-4 0  9998
2 56715  87.9100 229.0304 0002581  90.9018 269.2409 13.16594668151552
ONEWEB-0680             
1 56716U 23068G   26166.96043781  .00000060  00000+0  11276-3 0  9998
2 56716  87.9263 244.2150 0002620  98.3215 261.8217 13.21828201150931
ONEWEB-0681             
1 56717U 23068H   26166.94109624  .00000053  00000+0  95963-4 0  9994
2 56717  87.9258 244.2202 0002023  71.4844 288.6510 13.21826929150928
ONEWEB-0682             
1 56718U 23068J   26166.96684915 -.00000116  00000+0 -34293-3 0  9998
2 56718  87.9008 259.4370 0002552  99.0825 261.0595 13.15548525149290
ONEWEB-0683             
1 56719U 23068K   26166.76244444 -.00000064  00000+0 -20465-3 0  9994
2 56719  87.9011 259.4773 0002257 103.1220 257.0163 13.15548889149233
ONEWEB-0684             
1 56720U 23068L   26166.69430734  .00000093  00000+0  21264-3 0  9995
2 56720  87.9007 259.4809 0001431 143.9086 216.2141 13.15548091149053
ONEWEB-0686             
1 56721U 23068M   26166.91215115  .00000049  00000+0  95157-4 0  9999
2 56721  87.9088 229.0466 0002219 106.4791 253.6584 13.16594236151543
ONEWEB-0694             
1 56722U 23068N   26166.91847969  .00000287  00000+0  71789-3 0  9996
2 56722  87.9109 229.0098 0002466  99.8238 260.3172 13.16595014151604
ONEWEB-0696             
1 56723U 23068P   26166.72756651  .00000019  00000+0  16902-4 0  9993
2 56723  87.9004 259.5128 0001490 101.7410 258.3888 13.15546649149171
ONEWEB-0703             
1 56724U 23068Q   26166.81314672 -.00000156  00000+0 -44873-3 0  9998
2 56724  87.9003 259.4767 0001165  87.2938 272.8326 13.15548371149072
